start=new Date('2022-11-13T00:00:00.000Z').valueOf();
sats=[{"PERIOD":"95.437","SEMIMAJOR_AXIS":"6917.834","TLE_LINE1":"1 51880U 22022AE  22316.77435913  .00006575  00000-0  43063-3 0  9995","NORAD_CAT_ID":"51880","PERIAPSIS":"538.374","APOAPSIS":"541.025","REF_FRAME":"TEME","MEAN_ELEMENT_THEORY":"SGP4","TIME_SYSTEM":"UTC","OBJECT_NAME":"STARLINK-3566","OBJECT_ID":"2022-022AE","FILE":"3652635","COUNTRY_CODE":"US","CENTER_NAME":"EARTH","MEAN_MOTION_DOT":"0.00006575","MEAN_MOTION_DDOT":"0.0000000000000","INCLINATION":"53.2163","BSTAR":"0.00043063000000","OBJECT_TYPE":"PAYLOAD","ELEMENT_SET_NO":"999","GP_ID":"217588711","LAUNCH_DATE":"2022-03-03","ECCENTRICITY":"0.00019160","SITE":"AFETR","RCS_SIZE":"LARGE","MEAN_ANOMALY":"314.0627","TLE_LINE2":"2 51880  53.2163  54.1156 0001916  46.0523 314.0627 15.08855140 40007","EPHEMERIS_TYPE":"0","REV_AT_EPOCH":"4000","MEAN_MOTION":"15.08855140","EPOCH":"2022-11-12T18:35:04.628832","DECAY_DATE":null,"RA_OF_ASC_NODE":"54.1156","CLASSIFICATION_TYPE":"U","ARG_OF_PERICENTER":"46.0523"},{"NORAD_CAT_ID":"51881","PERIAPSIS":"538.119","TLE_LINE1":"1 51881U 22022AF  22316.65287600  .00007682  00000-0  50001-3 0  9991","MEAN_ELEMENT_THEORY":"SGP4","REF_FRAME":"TEME","TIME_SYSTEM":"UTC","APOAPSIS":"541.263","PERIOD":"95.436","SEMIMAJOR_AXIS":"6917.826","INCLINATION":"53.2182","OBJECT_TYPE":"PAYLOAD","ELEMENT_SET_NO":"999","BSTAR":"0.00050001000000","FILE":"3652635","OBJECT_NAME":"STARLINK-3504","OBJECT_ID":"2022-022AF","MEAN_MOTION_DOT":"0.00007682","MEAN_MOTION_DDOT":"0.0000000000000","COUNTRY_CODE":"US","CENTER_NAME":"EARTH","RCS_SIZE":"LARGE","TLE_LINE2":"2 51881  53.2182  44.6610 0002272  33.3909 326.7226 15.08857742 40174","MEAN_ANOMALY":"326.7226","LAUNCH_DATE":"2022-03-03","GP_ID":"217587969","ECCENTRICITY":"0.00022720","SITE":"AFETR","RA_OF_ASC_NODE":"44.6610","EPOCH":"2022-11-12T15:40:08.486400","DECAY_DATE":null,"CLASSIFICATION_TYPE":"U","ARG_OF_PERICENTER":"33.3909","EPHEMERIS_TYPE":"0","REV_AT_EPOCH":"4017","MEAN_MOTION":"15.08857742"},{"RCS_SIZE":"LARGE","MEAN_ANOMALY":"322.8535","TLE_LINE2":"2 51882  53.2179  44.8930 0002274  37.2614 322.8535 15.08857005 40167","GP_ID":"217588219","LAUNCH_DATE":"2022-03-03","SITE":"AFETR","ECCENTRICITY":"0.00022740","EPOCH":"2022-11-12T14:20:39.871680","DECAY_DATE":null,"RA_OF_ASC_NODE":"44.8930","ARG_OF_PERICENTER":"37.2614","CLASSIFICATION_TYPE":"U","REV_AT_EPOCH":"4016","EPHEMERIS_TYPE":"0","MEAN_MOTION":"15.08857005","TLE_LINE1":"1 51882U 22022AG  22316.59768370  .00006115  00000-0  40180-3 0  9990","PERIAPSIS":"538.120","NORAD_CAT_ID":"51882","APOAPSIS":"541.267","TIME_SYSTEM":"UTC","MEAN_ELEMENT_THEORY":"SGP4","REF_FRAME":"TEME","SEMIMAJOR_AXIS":"6917.828","PERIOD":"95.436","ELEMENT_SET_NO":"999","OBJECT_TYPE":"PAYLOAD","BSTAR":"0.00040180000000","INCLINATION":"53.2179","OBJECT_NAME":"STARLINK-3570","OBJECT_ID":"2022-022AG","FILE":"3652635","CENTER_NAME":"EARTH","COUNTRY_CODE":"US","MEAN_MOTION_DDOT":"0.0000000000000","MEAN_MOTION_DOT":"0.00006115"},{"MEAN_MOTION_DDOT":"0.0000000000000","MEAN_MOTION_DOT":"0.00011067","CENTER_NAME":"EARTH","COUNTRY_CODE":"US","FILE":"3652635","OBJECT_ID":"2022-022AH","OBJECT_NAME":"STARLINK-3576","BSTAR":"0.00071208000000","OBJECT_TYPE":"PAYLOAD","ELEMENT_SET_NO":"999","INCLINATION":"53.2165","SEMIMAJOR_AXIS":"6917.841","PERIOD":"95.437","TIME_SYSTEM":"UTC","REF_FRAME":"TEME","MEAN_ELEMENT_THEORY":"SGP4","APOAPSIS":"541.323","PERIAPSIS":"538.090","NORAD_CAT_ID":"51883","TLE_LINE1":"1 51883U 22022AH  22316.58024123  .00011067  00000-0  71208-3 0  9998","MEAN_MOTION":"15.08852794","REV_AT_EPOCH":"4010","EPHEMERIS_TYPE":"0","ARG_OF_PERICENTER":"35.9744","CLASSIFICATION_TYPE":"U","RA_OF_ASC_NODE":"44.9873","DECAY_DATE":null,"EPOCH":"2022-11-12T13:55:32.842272","SITE":"AFETR","ECCENTRICITY":"0.00023370","GP_ID":"217588971","LAUNCH_DATE":"2022-03-03","TLE_LINE2":"2 51883  53.2165  44.9873 0002337  35.9744 324.1405 15.08852794 40104","MEAN_ANOMALY":"324.1405","RCS_SIZE":"LARGE"},{"MEAN_MOTION_DOT":"0.00007017","MEAN_MOTION_DDOT":"0.0000000000000","COUNTRY_CODE":"US","CENTER_NAME":"EARTH","FILE":"3652635","OBJECT_ID":"2022-022AJ","OBJECT_NAME":"STARLINK-3577","INCLINATION":"53.2176","OBJECT_TYPE":"PAYLOAD","BSTAR":"0.00045835000000","ELEMENT_SET_NO":"999","PERIOD":"95.437","SEMIMAJOR_AXIS":"6917.834","MEAN_ELEMENT_THEORY":"SGP4","REF_FRAME":"TEME","TIME_SYSTEM":"UTC","APOAPSIS":"541.134","NORAD_CAT_ID":"51884","PERIAPSIS":"538.264","TLE_LINE1":"1 51884U 22022AJ  22316.72280581  .00007017  00000-0  45835-3 0  9994","MEAN_MOTION":"15.08855181","EPHEMERIS_TYPE":"0","REV_AT_EPOCH":"4021","CLASSIFICATION_TYPE":"U","ARG_OF_PERICENTER":"39.2368","RA_OF_ASC_NODE":"44.3385","EPOCH":"2022-11-12T17:20:50.421984","DECAY_DATE":null,"ECCENTRICITY":"0.00020740","SITE":"AFETR","GP_ID":"217589212","LAUNCH_DATE":"2022-03-03","TLE_LINE2":"2 51884  53.2176  44.3385 0002074  39.2368 320.8774 15.08855181 40213","MEAN_ANOMALY":"320.8774","RCS_SIZE":"LARGE"},{"INCLINATION":"53.2179","ELEMENT_SET_NO":"999","OBJECT_TYPE":"PAYLOAD","BSTAR":"0.00025826000000","COUNTRY_CODE":"US","CENTER_NAME":"EARTH","MEAN_MOTION_DDOT":"0.0000000000000","MEAN_MOTION_DOT":"0.00003825","OBJECT_ID":"2022-022AK","OBJECT_NAME":"STARLINK-3584","FILE":"3652635","APOAPSIS":"541.187","REF_FRAME":"TEME","MEAN_ELEMENT_THEORY":"SGP4","TIME_SYSTEM":"UTC","TLE_LINE1":"1 51885U 22022AK  22316.64184994  .00003825  00000-0  25826-3 0  9998","NORAD_CAT_ID":"51885","PERIAPSIS":"538.298","PERIOD":"95.437","SEMIMAJOR_AXIS":"6917.877","CLASSIFICATION_TYPE":"U","ARG_OF_PERICENTER":"36.9506","EPOCH":"2022-11-12T15:24:15.834816","DECAY_DATE":null,"RA_OF_ASC_NODE":"44.7145","MEAN_MOTION":"15.08841038","EPHEMERIS_TYPE":"0","REV_AT_EPOCH":"4011","MEAN_ANOMALY":"323.1630","TLE_LINE2":"2 51885  53.2179  44.7145 0002088  36.9506 323.1630 15.08841038 40110","RCS_SIZE":"LARGE","ECCENTRICITY":"0.00020880","SITE":"AFETR","LAUNCH_DATE":"2022-03-03","GP_ID":"217587469"},{"REV_AT_EPOCH":"4012","EPHEMERIS_TYPE":"0","MEAN_MOTION":"15.08837528","EPOCH":"2022-11-12T15:34:50.212128","DECAY_DATE":null,"RA_OF_ASC_NODE":"44.6829","ARG_OF_PERICENTER":"47.9496","CLASSIFICATION_TYPE":"U","LAUNCH_DATE":"2022-03-03","GP_ID":"217587719","SITE":"AFETR","ECCENTRICITY":"0.00019260","RCS_SIZE":"LARGE","MEAN_ANOMALY":"312.1660","TLE_LINE2":"2 51886  53.2181  44.6829 0001926  47.9496 312.1660 15.08837528 40123","OBJECT_NAME":"STARLINK-3565","OBJECT_ID":"2022-022AL","FILE":"3652635","CENTER_NAME":"EARTH","COUNTRY_CODE":"US","MEAN_MOTION_DOT":"0.00003142","MEAN_MOTION_DDOT":"0.0000000000000","ELEMENT_SET_NO":"999","OBJECT_TYPE":"PAYLOAD","BSTAR":"0.00021544000000","INCLINATION":"53.2181","SEMIMAJOR_AXIS":"6917.888","PERIOD":"95.438","TLE_LINE1":"1 51886U 22022AL  22316.64919227  .00003142  00000-0  21544-3 0  9999","PERIAPSIS":"538.421","NORAD_CAT_ID":"51886","APOAPSIS":"541.085","TIME_SYSTEM":"UTC","REF_FRAME":"TEME","MEAN_ELEMENT_THEORY":"SGP4"},{"GP_ID":"217588471","LAUNCH_DATE":"2022-03-03","ECCENTRICITY":"0.00022010","SITE":"AFETR","RCS_SIZE":"LARGE","MEAN_ANOMALY":"319.6341","TLE_LINE2":"2 51887  53.2169  44.1335 0002201  40.4815 319.6341 15.08859102 40138","EPHEMERIS_TYPE":"0","REV_AT_EPOCH":"4013","MEAN_MOTION":"15.08859102","EPOCH":"2022-11-12T18:29:43.297728","DECAY_DATE":null,"RA_OF_ASC_NODE":"44.1335","CLASSIFICATION_TYPE":"U","ARG_OF_PERICENTER":"40.4815","PERIOD":"95.436","SEMIMAJOR_AXIS":"6917.822","TLE_LINE1":"1 51887U 22022AM  22316.77064002  .00009909  00000-0  63945-3 0  9994","NORAD_CAT_ID":"51887","PERIAPSIS":"538.164","APOAPSIS":"541.210","REF_FRAME":"TEME","MEAN_ELEMENT_THEORY":"SGP4","TIME_SYSTEM":"UTC","OBJECT_NAME":"STARLINK-3551","OBJECT_ID":"2022-022AM","FILE":"3652635","COUNTRY_CODE":"US","CENTER_NAME":"EARTH","MEAN_MOTION_DOT":"0.00009909","MEAN_MOTION_DDOT":"0.0000000000000","INCLINATION":"53.2169","OBJECT_TYPE":"PAYLOAD","ELEMENT_SET_NO":"999","BSTAR":"0.00063945000000"},{"INCLINATION":"53.2169","BSTAR":"0.00044580000000","OBJECT_TYPE":"PAYLOAD","ELEMENT_SET_NO":"999","COUNTRY_CODE":"US","CENTER_NAME":"EARTH","MEAN_MOTION_DDOT":"0.0000000000000","MEAN_MOTION_DOT":"0.00006817","OBJECT_ID":"2022-022AN","OBJECT_NAME":"STARLINK-3536","FILE":"3652635","APOAPSIS":"540.917","MEAN_ELEMENT_THEORY":"SGP4","REF_FRAME":"TEME","TIME_SYSTEM":"UTC","TLE_LINE1":"1 51888U 22022AN  22316.57927100  .00006817  00000-0  44580-3 0  9999","NORAD_CAT_ID":"51888","PERIAPSIS":"538.471","PERIOD":"95.436","SEMIMAJOR_AXIS":"6917.829","CLASSIFICATION_TYPE":"U","ARG_OF_PERICENTER":"45.7189","EPOCH":"2022-11-12T13:54:09.014400","DECAY_DATE":null,"RA_OF_ASC_NODE":"44.9897","MEAN_MOTION":"15.08856924","EPHEMERIS_TYPE":"0","REV_AT_EPOCH":"4011","MEAN_ANOMALY":"314.3948","TLE_LINE2":"2 51888  53.2169  44.9897 0001768  45.7189 314.3948 15.08856924 40111","RCS_SIZE":"LARGE","ECCENTRICITY":"0.00017680","SITE":"AFETR","LAUNCH_DATE":"2022-03-03","GP_ID":"217588712"},{"FILE":"3652635","OBJECT_ID":"2022-022AP","OBJECT_NAME":"STARLINK-3547","MEAN_MOTION_DOT":"0.00000860","MEAN_MOTION_DDOT":"0.0000000000000","COUNTRY_CODE":"US","CENTER_NAME":"EARTH","INCLINATION":"53.2195","ELEMENT_SET_NO":"999","OBJECT_TYPE":"PAYLOAD","BSTAR":"0.00007213200000","PERIOD":"95.437","SEMIMAJOR_AXIS":"6917.856","NORAD_CAT_ID":"51889","PERIAPSIS":"538.236","TLE_LINE1":"1 51889U 22022AP  22316.62711854  .00000860  00000-0  72132-4 0  9990","MEAN_ELEMENT_THEORY":"SGP4","REF_FRAME":"TEME","TIME_SYSTEM":"UTC","APOAPSIS":"541.206","EPHEMERIS_TYPE":"0","REV_AT_EPOCH":"4011","MEAN_MOTION":"15.08847976","RA_OF_ASC_NODE":"44.7783","EPOCH":"2022-11-12T15:03:03.041856","DECAY_DATE":null,"CLASSIFICATION_TYPE":"U","ARG_OF_PERICENTER":"43.2874","LAUNCH_DATE":"2022-03-03","GP_ID":"217587970","ECCENTRICITY":"0.00021470","SITE":"AFETR","RCS_SIZE":"LARGE","TLE_LINE2":"2 51889  53.2195  44.7783 0002147  43.2874 316.8286 15.08847976 40118","MEAN_ANOMALY":"316.8286"}];
